ONEWEB-0029             
1 45445U 20020X   25279.48282597  .00000363  00000+0  98928-3 0  9996
2 45445  87.8810  71.5897 0001515  92.2460 267.8841 13.11417832269406
ONEWEB-0068             
1 45446U 20020Y   25279.46657620 -.00000181  00000+0 -54773-3 0  9998
2 45446  87.8812  71.5817 0001456  92.1193 268.0101 13.11418023269345
ONEWEB-0046             
1 45447U 20020Z   25279.45823213 -.00000436  00000+0 -12669-2 0  9991
2 45447  87.8806  71.5923 0001621  84.4242 275.7071 13.11417270269355
ONEWEB-0063             
1 45448U 20020AA  25279.48706852  .00000445  00000+0  12186-2 0  9996
2 45448  87.8811  71.5850 0001804  86.3621 273.7714 13.11415691269443
ONEWEB-0019             
1 45449U 20020AB  25279.46076852 -.00000622  00000+0 -17917-2 0  9991
2 45449  87.8800  71.6049 0001610  96.0988 264.0324 13.11418385269287
ONEWEB-0094             
1 45450U 20020AC  25279.42426160  .00000017  00000+0  99050-5 0  9997
2 45450  87.9090  56.2973 0001576  96.8128 263.3183 13.17652169272893
ONEWEB-0087             
1 45451U 20020AD  25279.49710390  .00000523  00000+0  14412-2 0  9994
2 45451  87.8817  71.5343 0001348  93.0498 267.0784 13.11414506269335
ONEWEB-0082             
1 45452U 20020AE  25279.49385618  .00000479  00000+0  13168-2 0  9993
2 45452  87.8822  71.5605 0001507  96.0385 264.0915 13.11415541269421
ONEWEB-0050             
1 45453U 20020AF  25279.44753536  .00064374  00000+0  67298-2 0  9994
2 45453  88.5319 268.3507 0002841 145.9698 214.1713 14.89348883302601
ONEWEB-0034             
1 45454U 20020AG  25279.43874144 -.00000188  00000+0 -56694-3 0  9997
2 45454  87.8808  71.5913 0001606  94.1885 265.9427 13.11414281269331
ONEWEB-0060             
1 45455U 20020AH  25279.48622647  .00000560  00000+0  15431-2 0  9997
2 45455  87.8799  71.6063 0000427 106.4425 253.6750 13.11417894269296
ONEWEB-0086             
1 45456U 20020AJ  25279.46501872 -.00000276  00000+0 -81392-3 0  9998
2 45456  87.8810  71.5831 0001282 121.3157 238.8097 13.11417419269350
ONEWEB-0088             
1 45457U 20020AK  25279.44297720 -.00000341  00000+0 -99716-3 0  9993
2 45457  87.8822  71.5366 0001608  89.1998 270.9314 13.11413600269282
ONEWEB-0102             
1 47258U 20100A   25279.34125766  .00000345  00000+0  92348-3 0  9998
2 47258  87.8950  41.1128 0001844 102.7210 257.4125 13.12441101231439
ONEWEB-0109             
1 47259U 20100B   25279.34937253  .00000015  00000+0  73347-5 0  9995
2 47259  87.8945  41.0788 0001756 101.1849 258.9477 13.12441834231268
ONEWEB-0110             
1 47260U 20100C   25279.37531618 -.00000333  00000+0 -96101-3 0  9991
2 47260  87.8944  41.0578 0001520 106.9392 253.1903 13.12443593231435
ONEWEB-0111             
1 47261U 20100D   25279.40614927  .00000398  00000+0  10721-2 0  9993
2 47261  87.8947  41.0692 0001739 100.7543 259.3782 13.12442342231274
ONEWEB-0114             
1 47262U 20100E   25279.36072204 -.00000231  00000+0 -67839-3 0  9996
2 47262  87.8949  41.0724 0002003 101.6109 258.5245 13.12442148231220
ONEWEB-0117             
1 47263U 20100F   25279.35261439 -.00000050  00000+0 -17550-3 0  9990
2 47263  87.8949  41.0720 0001677  99.9239 260.2079 13.12442300231232
ONEWEB-0118             
1 47264U 20100G   25279.38505554 -.00000106  00000+0 -32955-3 0  9991
2 47264  87.8945  41.0646 0001982  94.2456 265.8899 13.12446124231435
ONEWEB-0119             
1 47265U 20100H   25279.41263638  .00000366  00000+0  98199-3 0  9998
2 47265  87.8946  41.0964 0001718 101.3534 258.7788 13.12442527231413
ONEWEB-0120             
1 47266U 20100J   25279.35923900 -.00000277  00000+0 -80641-3 0  9993
2 47266  87.8951  41.1090 0001807 101.4085 258.7247 13.12442329231434
ONEWEB-0121             
1 47267U 20100K   25279.34775884  .00000201  00000+0  52243-3 0  9991
2 47267  87.8947  41.0772 0001591 103.0514 257.0792 13.12442909231342
ONEWEB-0122             
1 47268U 20100L   25279.41897821  .00000276  00000+0  73074-3 0  9993
2 47268  87.8948  41.0657 0001746 105.3824 254.7498 13.12440807231260
ONEWEB-0123             
1 47269U 20100M   25279.41426053  .00000398  00000+0  10701-2 0  9991
2 47269  87.8941  41.0939 0001711  94.7620 265.3703 13.12441252231402
ONEWEB-0124             
1 47270U 20100N   25279.40290510  .00000415  00000+0  11190-2 0  9992
2 47270  87.8948  41.0996 0001546  97.4368 262.6936 13.12442527231289
ONEWEB-0125             
1 47271U 20100P   25279.38018215 -.00000214  00000+0 -62982-3 0  9995
2 47271  87.8945  41.0665 0001657  89.8340 270.2978 13.12443686231343
ONEWEB-0126             
1 47272U 20100Q   25279.40141946  .00000279  00000+0  74052-3 0  9997
2 47272  87.8952  41.0855 0001800 100.2900 259.8431 13.12443345231410
ONEWEB-0127             
1 47273U 20100R   25279.36720669 -.00000333  00000+0 -96036-3 0  9997
2 47273  87.8949  41.1034 0001776 103.5006 256.6321 13.12443048231437
ONEWEB-0128             
1 47274U 20100S   25279.38991904  .00000074  00000+0  16958-3 0  9997
2 47274  87.8938  41.1212 0001647 108.0342 252.0966 13.12443804231451
ONEWEB-0129             
1 47275U 20100T   25279.36883184 -.00000374  00000+0 -10756-2 0  9990
2 47275  87.8949  41.0718 0002828 110.2660 249.8772 13.12443181231383
ONEWEB-0130             
1 47276U 20100U   25279.39641231  .00000279  00000+0  73903-3 0  9995
2 47276  87.8945  41.0628 0001705 103.5465 256.5853 13.12443231231359
ONEWEB-0131             
1 47277U 20100V   25279.39316890  .00000126  00000+0  31605-3 0  9990
2 47277  87.8948  41.0934 0001656 101.6820 258.4495 13.12443020231395
ONEWEB-0132             
1 47278U 20100W   25279.34613425  .00000270  00000+0  71578-3 0  9993
2 47278  87.8950  41.1046 0001697 100.9108 259.2212 13.12442357231286
ONEWEB-0133             
1 47279U 20100X   25279.36220341 -.00000256  00000+0 -74579-3 0  9997
2 47279  87.8938  41.0682 0001590 103.8272 256.3034 13.12441435231448
ONEWEB-0134             
1 47280U 20100Y   25279.40776757  .00000434  00000+0  11696-2 0  9997
2 47280  87.8948  41.0491 0001777 108.1184 252.0138 13.12442253231421
ONEWEB-0135             
1 47281U 20100Z   25279.37856874 -.00000253  00000+0 -73868-3 0  9994
2 47281  87.8946  41.0952 0001624 115.1215 245.0082 13.12442803231449
ONEWEB-0136             
1 47282U 20100AA  25279.32180591  .00000380  00000+0  10214-2 0  9990
2 47282  87.8949  41.0751 0001871 113.2450 246.8876 13.12443954231363
ONEWEB-0137             
1 47283U 20100AB  25279.35585794 -.00000202  00000+0 -59687-3 0  9991
2 47283  87.8942  41.0732 0001850  94.2039 265.9301 13.12442636231275
ONEWEB-0138             
1 47284U 20100AC  25279.41100697  .00000443  00000+0  11973-2 0  9994
2 47284  87.8945  41.0727 0001772 105.8540 254.2784 13.12440881231368
ONEWEB-0139             
1 47285U 20100AD  25279.37384492 -.00000376  00000+0 -10797-2 0  9997
2 47285  87.8943  41.0705 0001699 100.5821 259.5499 13.12444163231431
ONEWEB-0140             
1 47286U 20100AE  25279.40452664  .00000414  00000+0  11144-2 0  9997
2 47286  87.8947  41.0497 0001747 103.6419 256.4904 13.12441918231404
ONEWEB-0141             
1 47287U 20100AF  25279.37355837 -.00000378  00000+0 -10869-2 0  9992
2 47287  87.8943  41.0697 0001988  93.2155 266.9201 13.12441774231384
ONEWEB-0142             
1 47288U 20100AG  25279.36248898 -.00000384  00000+0 -11030-2 0  9998
2 47288  87.8951  41.0900 0002078  97.0597 263.0768 13.12443118231373
ONEWEB-0143             
1 47289U 20100AH  25279.37206992 -.00000392  00000+0 -11264-2 0  9997
2 47289  87.8948  41.0845 0001672  99.3450 260.7867 13.12442014231356
ONEWEB-0144             
1 47290U 20100AJ  25279.34450802  .00000268  00000+0  70961-3 0  9997
2 47290  87.8940  41.0632 0002007 103.4102 256.7250 13.12441185231278
ONEWEB-0145             
1 47291U 20100AK  25279.39154206  .00000092  00000+0  22028-3 0  9998
2 47291  87.8949  41.0871 0001748 100.9198 259.2127 13.12443244231472
ONEWEB-0146             
1 47292U 20100AL  25279.38830149 -.00000030  00000+0 -12005-3 0  9993
2 47292  87.8949  41.0743 0001356  95.0699 265.0584 13.12443679231380
ONEWEB-0147             
1 47293U 20100AM  25279.35423236 -.00000145  00000+0 -43886-3 0  9994
2 47293  87.8949  41.0593 0001706 109.7568 250.3744 13.12441818231277
ONEWEB-0115             
1 48042U 21025A   25279.27578696 -.00000178  00000+0 -52205-3 0  9997
2 48042  87.9056  10.6637 0001770  99.9428 260.1901 13.13469652220265
ONEWEB-0152             
1 48043U 21025B   25279.28932500 -.00000205  00000+0 -59674-3 0  9995
2 48043  87.9049  10.6745 0001679 102.0241 258.1076 13.13468872220224
ONEWEB-0153             
1 48044U 21025C   25279.49585713  .00000030  00000+0  48239-4 0  9999
2 48044  87.9057  10.6344 0001857 100.5895 259.5443 13.13467841220245
ONEWEB-0154             
1 48045U 21025D   25279.49247455  .00000192  00000+0  49163-3 0  9993
2 48045  87.9055  10.6314 0001820 103.6103 256.5229 13.13469702220200
ONEWEB-0116             
1 48046U 21025E   25279.53140797 -.00000031  00000+0 -12114-3 0  9990
2 48046  87.9059  10.6066 0001675 100.6341 259.4977 13.13470015220355
ONEWEB-0150             
1 48047U 21025F   25279.50770771 -.00000225  00000+0 -64987-3 0  9999
2 48047  87.9058  10.6062 0001897  95.3486 264.7859 13.13468981220242
ONEWEB-0107             
1 48048U 21025G   25279.50940531 -.00000179  00000+0 -52413-3 0  9992
2 48048  87.9059  10.6034 0002114 103.6475 256.4889 13.13470330220227
ONEWEB-0101             
1 48049U 21025H   25279.31981900  .00000390  00000+0  10325-2 0  9995
2 48049  87.9048  10.6791 0001867 105.2118 254.9218 13.13468074220177
ONEWEB-0113             
1 48050U 21025J   25279.28622405 -.00000262  00000+0 -74733-3 0  9999
2 48050  87.9052  10.6226 0001666  93.9126 266.2194 13.13979257220265
ONEWEB-0112             
1 48051U 21025K   25279.51448438 -.00000249  00000+0 -71740-3 0  9998
2 48051  87.9056  10.5992 0001848  98.7293 261.4046 13.13469705220297
